[{"OBJECT_NAME":"STARLINK-34760","OBJECT_ID":"2025-190J","EPOCH":"2026-03-09T14:17:01.166496","MEAN_MOTION":15.30189445,"ECCENTRICITY":0.0001226,"INCLINATION":53.1601,"RA_OF_ASC_NODE":168.4095,"ARG_OF_PERICENTER":65.5219,"MEAN_ANOMALY":294.5909,"EPHEMERIS_TYPE":0,"CLASSIFICATION_TYPE":"U","NORAD_CAT_ID":65359,"ELEMENT_SET_NO":999,"REV_AT_EPOCH":2927,"BSTAR":0.00079774,"MEAN_MOTION_DOT":0.00023334,"MEAN_MOTION_DDOT":0},{"OBJECT_NAME":"CZ-6A DEB","OBJECT_ID":"2024-140ZM","EPOCH":"2026-03-09T08:08:19.885920","MEAN_MOTION":14.97554426,"ECCENTRICITY":0.01813088,"INCLINATION":90.2734,"RA_OF_ASC_NODE":12.4689,"ARG_OF_PERICENTER":116.477,"MEAN_ANOMALY":245.5188,"EPHEMERIS_TYPE":0,"CLASSIFICATION_TYPE":"U","NORAD_CAT_ID":61455,"ELEMENT_SET_NO":999,"REV_AT_EPOCH":8308,"BSTAR":0.00078895456,"MEAN_MOTION_DOT":0.00012969,"MEAN_MOTION_DDOT":0}]
